NORAD_CAT_ID,OBJECT_NAME,OBJECT_TYPE,EPOCH,MEAN_MOTION,ECCENTRICITY,INCLINATION,RA_OF_ASC_NODE,ARG_OF_PERICENTER,MEAN_ANOMALY,BSTAR,MEAN_MOTION_DOT,MEAN_MOTION_DDOT,TLE_LINE0,TLE_LINE1,TLE_LINE2,SEMIMAJOR_AXIS,PERIOD,APOGEE,PERIGEE,DECAYED
53737.0,STARLINK-4646,PAYLOAD,2024-08-06 13:07:29,15.08829969,0.000246,53.2172,348.3388,90.8997,269.2277,-2.3986e-05,-6.7e-06,0.0,0 STARLINK-4646,1 53737U 22107AP  24219.54686475 -.00000670  00000-0 -23986-4 0  9997,2 53737  53.2172 348.3388 0002460  90.8997 269.2277 15.08829969106232,6917.911,95.438,541.478,538.074,0.0
53737.0,STARLINK-4646,PAYLOAD,2024-08-06 14:42:52,15.08825935,0.0001906,53.2184,348.0435,88.2521,271.8689,-0.00020709,-3.581e-05,0.0,0 STARLINK-4646,1 53737U 22107AP  24219.61310487 -.00003581  00000-0 -20709-3 0  9995,2 53737  53.2184 348.0435 0001906  88.2521 271.8689 15.08825935107026,6917.923,95.438,541.107,538.47,0.0
53737.0,STARLINK-4646,PAYLOAD,2024-08-06 16:18:15,15.08837846,0.0001498,53.2179,347.7448,86.3761,273.7402,-3.6155e-05,-8.63e-06,0.0,0 STARLINK-4646,1 53737U 22107AP  24219.67934171 -.00000863  00000-0 -36155-4 0  9996,2 53737  53.2179 347.7448 0001498  86.3761 273.7402 15.08837846107030,6917.887,95.438,540.788,538.716,0.0
53737.0,STARLINK-4646,PAYLOAD,2024-08-07 12:58:15,15.08841756,0.0001473,53.2174,343.881,100.3032,259.8126,0.00012043,1.629e-05,0.0,0 STARLINK-4646,1 53737U 22107AP  24220.54046225  .00001629  00000-0  12043-3 0  9996,2 53737  53.2174 343.8810 0001473 100.3032 259.8126 15.08841756106386,6917.875,95.437,540.759,538.721,0.0
53737.0,STARLINK-4646,PAYLOAD,2024-08-08 12:49:02,15.08845437,0.0001431,53.2183,339.4158,90.8124,269.3032,0.00031215,4.684e-05,0.0,0 STARLINK-4646,1 53737U 22107AP  24221.53406174  .00004684  00000-0  31215-3 0  9995,2 53737  53.2183 339.4158 0001431  90.8124 269.3032 15.08845437107317,6917.864,95.437,540.719,538.739,0.0
53737.0,STARLINK-4646,PAYLOAD,2024-08-08 14:24:25,15.08852855,0.000158,53.2173,339.1252,90.5215,269.5959,0.00017538,2.505e-05,0.0,0 STARLINK-4646,1 53737U 22107AP  24221.60029800  .00002505  00000-0  17538-3 0  9992,2 53737  53.2173 339.1252 0001580  90.5215 269.5959 15.08852855106547,6917.841,95.437,540.799,538.613,0.0
53737.0,STARLINK-4646,PAYLOAD,2024-08-09 12:39:49,15.08844816,0.0001669,53.2179,334.9612,106.3629,253.7547,8.0783e-05,9.98e-06,0.0,0 STARLINK-4646,1 53737U 22107AP  24222.52766082  .00000998  00000-0  80783-4 0  9991,2 53737  53.2179 334.9612 0001669 106.3629 253.7547 15.08844816106680,6917.866,95.437,540.885,538.576,0.0
53737.0,STARLINK-4646,PAYLOAD,2024-08-09 14:15:12,15.08847672,0.000164,53.2179,334.6624,110.1084,250.0085,9.6818e-05,1.253e-05,0.0,0 STARLINK-4646,1 53737U 22107AP  24222.59389854  .00001253  00000-0  96818-4 0  9997,2 53737  53.2179 334.6624 0001640 110.1084 250.0085 15.08847672107475,6917.857,95.437,540.856,538.587,0.0
53737.0,STARLINK-4646,PAYLOAD,2024-08-10 12:30:37,15.08837951,0.0001634,53.2176,330.4995,101.4936,258.624,9.9851e-05,1.301e-05,0.0,0 STARLINK-4646,1 53737U 22107AP  24223.52126522  .00001301  00000-0  99851-4 0  9996,2 53737  53.2176 330.4995 0001634 101.4936 258.6240 15.08837951106834,6917.887,95.438,540.882,538.621,0.0
53737.0,STARLINK-4646,PAYLOAD,2024-08-10 14:05:59,15.08847028,0.000154,53.2181,330.2013,97.5169,262.5999,6.6684e-05,7.74e-06,0.0,0 STARLINK-4646,1 53737U 22107AP  24223.58749982  .00000774  00000-0  66684-4 0  9994,2 53737  53.2181 330.2013 0001540  97.5169 262.5999 15.08847028107627,6917.859,95.437,540.789,538.659,0.0
53737.0,STARLINK-4646,PAYLOAD,2024-08-10 17:16:46,15.0884774,0.0001451,53.2176,329.6001,100.0245,260.0911,0.00019853,2.874e-05,0.0,0 STARLINK-4646,1 53737U 22107AP  24223.71997896  .00002874  00000-0  19853-3 0  9996,2 53737  53.2176 329.6001 0001451 100.0245 260.0911 15.08847740106869,6917.857,95.437,540.726,538.718,0.0
53737.0,STARLINK-4646,PAYLOAD,2024-08-11 17:07:32,15.08871192,0.0001701,53.2174,325.1467,99.5739,260.5445,0.00051197,7.876e-05,0.0,0 STARLINK-4646,1 53737U 22107AP  24224.71356654  .00007876  00000-0  51197-3 0  9992,2 53737  53.2174 325.1467 0001701  99.5739 260.5445 15.08871192107015,6917.785,95.436,540.827,538.473,0.0
53737.0,STARLINK-4646,PAYLOAD,2024-08-11 23:29:06,15.08834229,0.0002426,53.2161,323.9541,92.6314,267.4956,-4.1155e-05,-9.43e-06,0.0,0 STARLINK-4646,1 53737U 22107AP  24224.97854650 -.00000943  00000-0 -41155-4 0  9993,2 53737  53.2161 323.9541 0002426  92.6314 267.4956 15.08834229107055,6917.898,95.438,541.441,538.085,0.0
53737.0,STARLINK-4646,PAYLOAD,2024-08-12 13:47:31,15.08899456,0.0001275,53.217,321.2781,91.4337,268.6801,0.00077311,0.00012057,0.0,0 STARLINK-4646,1 53737U 22107AP  24225.57466996  .00012057  00000-0  77311-3 0  9991,2 53737  53.2170 321.2781 0001275  91.4337 268.6801 15.08899456107140,6917.699,95.434,540.446,538.682,0.0
53737.0,STARLINK-4646,PAYLOAD,2024-08-12 16:58:16,15.08905899,0.0001137,53.217,320.6798,64.6489,295.4621,0.00085651,0.00013394,0.0,0 STARLINK-4646,1 53737U 22107AP  24225.70714067  .00013394  00000-0  85651-3 0  9992,2 53737  53.2170 320.6798 0001137  64.6489 295.4621 15.08905899107943,6917.679,95.433,540.331,538.757,0.0
53737.0,STARLINK-4646,PAYLOAD,2024-08-13 05:41:26,15.08776737,0.0001284,53.2162,318.3059,102.0613,258.0523,-0.0013936,-0.0002236,0.0,0 STARLINK-4646,1 53737U 22107AP  24226.23711305 -.00022360  00000-0 -13936-2 0  9994,2 53737  53.2162 318.3059 0001284 102.0613 258.0523 15.08776737107243,6918.074,95.442,540.827,539.05,0.0
53737.0,STARLINK-4646,PAYLOAD,2024-08-13 10:27:37,15.0878462,0.0001807,53.2218,317.4177,103.5658,256.5535,-0.00082005,-0.00013296,0.0,0 STARLINK-4646,1 53737U 22107AP  24226.43584517 -.00013296  00000-0 -82005-3 0  9991,2 53737  53.2218 317.4177 0001807 103.5658 256.5535 15.08784620108058,6918.05,95.441,541.165,538.665,0.0
53737.0,STARLINK-4646,PAYLOAD,2024-08-14 05:32:14,15.08799288,6.8e-05,53.2143,313.8432,142.1624,217.9416,-0.00033218,-5.564e-05,0.0,0 STARLINK-4646,1 53737U 22107AP  24227.23072793 -.00005564  00000-0 -33218-3 0  9999,2 53737  53.2143 313.8432 0000680 142.1624 217.9416 15.08799288107390,6918.005,95.44,540.34,539.399,0.0
53737.0,STARLINK-4646,PAYLOAD,2024-08-14 13:29:10,15.08825155,0.000168,53.2159,312.3573,114.6548,245.4619,0.00019739,2.854e-05,0.0,0 STARLINK-4646,1 53737U 22107AP  24227.56192646  .00002854  00000-0  19739-3 0  9994,2 53737  53.2159 312.3573 0001680 114.6548 245.4619 15.08825155107447,6917.926,95.438,540.953,538.629,0.0
53737.0,STARLINK-4646,PAYLOAD,2024-08-15 11:44:34,15.08862834,0.0001641,53.2153,308.1963,103.536,256.5815,0.0011672,0.00018348,0.0,0 STARLINK-4646,1 53737U 22107AP  24228.48928737  .00018348  00000-0  11672-2 0  9996,2 53737  53.2153 308.1963 0001641 103.5360 256.5815 15.08862834108361,6917.811,95.436,540.811,538.54,0.0
53737.0,STARLINK-4646,PAYLOAD,2024-08-15 22:52:15,15.08869562,0.0001037,53.2162,306.1125,127.6965,232.4122,0.0005395,8.316e-05,0.0,0 STARLINK-4646,1 53737U 22107AP  24228.95295624  .00008316  00000-0  53950-3 0  9990,2 53737  53.2162 306.1125 0001037 127.6965 232.4122 15.08869562107656,6917.79,95.436,540.372,538.938,0.0
53737.0,STARLINK-4646,PAYLOAD,2024-08-16 09:59:57,15.08857988,0.0002425,53.2165,304.0302,99.611,260.5156,9.759e-05,1.266e-05,0.0,0 STARLINK-4646,1 53737U 22107AP  24229.41663783  .00001266  00000-0  97590-4 0  9993,2 53737  53.2165 304.0302 0002425  99.6110 260.5156 15.08857988107721,6917.825,95.436,541.368,538.013,0.0
53737.0,STARLINK-4646,PAYLOAD,2024-08-17 05:04:35,15.08847975,0.0001561,53.2152,300.4638,93.053,267.0641,0.00024494,3.613e-05,0.0,0 STARLINK-4646,1 53737U 22107AP  24230.21151662  .00003613  00000-0  24494-3 0  9991,2 53737  53.2152 300.4638 0001561  93.0530 267.0641 15.08847975107842,6917.856,95.437,540.801,538.641,0.0
53737.0,STARLINK-4646,PAYLOAD,2024-08-17 08:15:21,15.08851433,0.0002086,53.2143,299.8679,102.8434,257.2791,8.1261e-05,1.006e-05,0.0,0 STARLINK-4646,1 53737U 22107AP  24230.34399440  .00001006  00000-0  81261-4 0  9993,2 53737  53.2143 299.8679 0002086 102.8434 257.2791 15.08851433108643,6917.845,95.437,541.154,538.267,0.0
53737.0,STARLINK-4646,PAYLOAD,2024-08-18 04:55:22,15.08839193,0.0001488,53.2154,296.0054,87.5769,272.5393,7.1714e-05,8.54e-06,0.0,0 STARLINK-4646,1 53737U 22107AP  24231.20511849  .00000854  00000-0  71714-4 0  9990,2 53737  53.2154 296.0054 0001488  87.5769 272.5393 15.08839193107990,6917.883,95.438,540.777,538.718,0.0
53737.0,STARLINK-4646,PAYLOAD,2024-08-18 11:16:53,15.08859238,0.0001665,53.2157,294.8154,97.3751,262.7431,0.00031996,4.81e-05,0.0,0 STARLINK-4646,1 53737U 22107AP  24231.47006797  .00004810  00000-0  31996-3 0  9993,2 53737  53.2157 294.8154 0001665  97.3751 262.7431 15.08859238108039,6917.822,95.436,540.838,538.535,0.0
53737.0,STARLINK-4646,PAYLOAD,2024-08-19 04:46:09,15.0883978,0.0001778,53.2162,291.5486,91.2014,268.9182,1.4625e-05,-5.5e-07,0.0,0 STARLINK-4646,1 53737U 22107AP  24232.19871551 -.00000055  00000-0  14625-4 0  9990,2 53737  53.2162 291.5486 0001778  91.2014 268.9182 15.08839780108140,6917.881,95.438,540.976,538.516,0.0
53737.0,STARLINK-4646,PAYLOAD,2024-08-19 11:07:42,15.08831813,0.000156,53.2164,290.3536,92.0035,268.1135,-4.542e-05,-1.011e-05,0.0,0 STARLINK-4646,1 53737U 22107AP  24232.46368443 -.00001011  00000-0 -45420-4 0  9992,2 53737  53.2164 290.3536 0001560  92.0035 268.1135 15.08831813108189,6917.905,95.438,540.85,538.691,0.0
53737.0,STARLINK-4646,PAYLOAD,2024-08-20 04:36:56,15.08843973,0.0001541,53.2164,287.0807,94.5318,265.585,-6.1493e-05,-1.267e-05,0.0,0 STARLINK-4646,1 53737U 22107AP  24233.19232041 -.00001267  00000-0 -61493-4 0  9998,2 53737  53.2164 287.0807 0001541  94.5318 265.5850 15.08843973108290,6917.868,95.437,540.799,538.667,0.0
53737.0,STARLINK-4646,PAYLOAD,2024-08-20 10:58:28,15.0885116,0.0001572,53.2164,285.892,94.5375,265.5796,7.1919e-06,-1.74e-06,0.0,0 STARLINK-4646,1 53737U 22107AP  24233.45727323 -.00000174  00000-0  71919-5 0  9999,2 53737  53.2164 285.8920 0001572  94.5375 265.5796 15.08851160108330,6917.846,95.437,540.799,538.624,0.0
